{"type": "FeatureCollection", "features": [ {"type": "Feature", "properties": {"norad_id": 40115, "name": "WORLDVIEW-3 (WV-3)", "group": "resource", "lat": 58.433793867427234, "lon": 42.9421555769993, "alt_km": 608.649769529462, "timestamp": "2025-12-09T14:52:25.823010+00:00", "meta": {"OBJECT_NAME": "WORLDVIEW-3 (WV-3)", "OBJECT_ID": "2014-048A", "EPOCH": "2025-12-09T06:31:27.960960", "MEAN_MOTION": 14.85499078, "ECCENTRICITY": 0.00044876, "INCLINATION": 97.8619, "RA_OF_ASC_NODE": 55.5957, "ARG_OF_PERICENTER": 196.6866, "MEAN_ANOMALY": 163.4202, "EPHEMERIS_TYPE": 0, "CLASSIFICATION_TYPE": "U", "NORAD_CAT_ID": 40115, "ELEMENT_SET_NO": 999, "REV_AT_EPOCH": 61372, "BSTAR": 0.00025314946, "MEAN_MOTION_DOT": 2.132e-05, "MEAN_MOTION_DDOT": 0}, "tle": {"line1": "1 40115U 14048A   25343.27185140  .00002132  00000+0  25315-3 0  9999", "line2": "2 40115  97.8619  55.5957 0004487 196.6866 163.4202 14.85499078613726"}}, "geometry": {"type": "Point", "coordinates": [42.9421555769993, 58.433793867427234]}}, {"type": "Feature", "properties": {"norad_id": 40118, "name": "GAOFEN-2", "group": "resource", "lat": -66.908026554514, "lon": 62.13997397971633, "alt_km": 640.512348258254, "timestamp": "2025-12-09T14:52:25.823025+00:00", "meta": {"OBJECT_NAME": "GAOFEN-2", "OBJECT_ID": "2014-049A", "EPOCH": "2025-12-09T07:04:20.983584", "MEAN_MOTION": 14.80599051, "ECCENTRICITY": 0.00084407, "INCLINATION": 98.0386, "RA_OF_ASC_NODE": 42.4572, "ARG_OF_PERICENTER": 122.2904, "MEAN_ANOMALY": 237.9127, "EPHEMERIS_TYPE": 0, "CLASSIFICATION_TYPE": "U", "NORAD_CAT_ID": 40118, "ELEMENT_SET_NO": 999, "REV_AT_EPOCH": 61113, "BSTAR": 0.00014803853, "MEAN_MOTION_DOT": 1.083e-05, "MEAN_MOTION_DDOT": 0}, "tle": {"line1": "1 40118U 14049A   25343.29468731  .00001083  00000+0  14804-3 0  9990", "line2": "2 40118  98.0386  42.4572 0008440 122.2904 237.9127 14.80599051611135"}}, "geometry": {"type": "Point", "coordinates": [62.13997397971633, -66.908026554514]}}, {"type": "Feature", "properties": {"norad_id": 40143, "name": "YAOGAN-21", "group": "resource", "lat": 46.6646517774659, "lon": -145.25856604588725, "alt_km": 489.94496436406826, "timestamp": "2025-12-09T14:52:25.823036+00:00", "meta": {"OBJECT_NAME": "YAOGAN-21", "OBJECT_ID": "2014-053A", "EPOCH": "2025-12-09T06:24:46.276128", "MEAN_MOTION": 15.23614102, "ECCENTRICITY": 0.00099367, "INCLINATION": 97.1755, "RA_OF_ASC_NODE": 26.7309, "ARG_OF_PERICENTER": 51.9947, "MEAN_ANOMALY": 308.2187, "EPHEMERIS_TYPE": 0, "CLASSIFICATION_TYPE": "U", "NORAD_CAT_ID": 40143, "ELEMENT_SET_NO": 999, "REV_AT_EPOCH": 62601, "BSTAR": 0.000391037, "MEAN_MOTION_DOT": 9.312e-05, "MEAN_MOTION_DDOT": 0}, "tle": {"line1": "1 40143U 14053A   25343.26720227  .00009312  00000+0  39104-3 0  9994", "line2": "2 40143  97.1755  26.7309 0009936  51.9947 308.2187 15.23614102626016"}}, "geometry": {"type": "Point", "coordinates": [-145.25856604588725, 46.6646517774659]}}, {"type": "Feature", "properties": {"norad_id": 40275, "name": "YAOGAN-22", "group": "resource", "lat": 37.85144492765199, "lon": -44.52218123606757, "alt_km": 1200.763756645848, "timestamp": "2025-12-09T14:52:25.823046+00:00", "meta": {"OBJECT_NAME": "YAOGAN-22", "OBJECT_ID": "2014-063A", "EPOCH": "2025-12-09T06:51:23.630688", "MEAN_MOTION": 13.15522519, "ECCENTRICITY": 0.00059359, "INCLINATION": 100.742, "RA_OF_ASC_NODE": 126.6564, "ARG_OF_PERICENTER": 256.6682, "MEAN_ANOMALY": 103.3767, "EPHEMERIS_TYPE": 0, "CLASSIFICATION_TYPE": "U", "NORAD_CAT_ID": 40275, "ELEMENT_SET_NO": 999, "REV_AT_EPOCH": 53484, "BSTAR": 0.00013232533, "MEAN_MOTION_DOT": 3e-08, "MEAN_MOTION_DDOT": 0}, "tle": {"line1": "1 40275U 14063A   25343.28569017  .00000003  00000+0  13233-3 0  9994", "line2": "2 40275 100.7420 126.6564 0005935 256.6682 103.3767 13.15522519534846"}}, "geometry": {"type": "Point", "coordinates": [-44.52218123606757, 37.85144492765199]}}, {"type": "Feature", "properties": {"norad_id": 40298, "name": "ASNARO", "group": "resource", "lat": -47.26146899254673, "lon": -128.40387077518517, "alt_km": 515.0392025347246, "timestamp": "2025-12-09T14:52:25.823056+00:00", "meta": {"OBJECT_NAME": "ASNARO", "OBJECT_ID": "2014-070A", "EPOCH": "2025-12-09T05:58:19.898688", "MEAN_MOTION": 15.19380616, "ECCENTRICITY": 0.00054081, "INCLINATION": 97.3648, "RA_OF_ASC_NODE": 59.281, "ARG_OF_PERICENTER": 131.235, "MEAN_ANOMALY": 228.9351, "EPHEMERIS_TYPE": 0, "CLASSIFICATION_TYPE": "U", "NORAD_CAT_ID": 40298, "ELEMENT_SET_NO": 999, "REV_AT_EPOCH": 61516, "BSTAR": 0.00077165862, "MEAN_MOTION_DOT": 0.00016287, "MEAN_MOTION_DDOT": 0}, "tle": {"line1": "1 40298U 14070A   25343.24884142  .00016287  00000+0  77166-3 0  9998", "line2": "2 40298  97.3648  59.2810 0005408 131.2350 228.9351 15.19380616615168"}}, "geometry": {"type": "Point", "coordinates": [-128.40387077518517, -47.26146899254673]}}, {"type": "Feature", "properties": {"norad_id": 40310, "name": "YAOGAN-24", "group": "resource", "lat": -34.53845308701203, "lon": 120.33730417040275, "alt_km": 657.9290320568107, "timestamp": "2025-12-09T14:52:25.823067+00:00", "meta": {"OBJECT_NAME": "YAOGAN-24", "OBJECT_ID": "2014-072A", "EPOCH": "2025-12-09T06:53:53.369664", "MEAN_MOTION": 14.76166342, "ECCENTRICITY": 0.00145901, "INCLINATION": 98.1225, "RA_OF_ASC_NODE": 114.3622, "ARG_OF_PERICENTER": 148.5182, "MEAN_ANOMALY": 211.6904, "EPHEMERIS_TYPE": 0, "CLASSIFICATION_TYPE": "U", "NORAD_CAT_ID": 40310, "ELEMENT_SET_NO": 999, "REV_AT_EPOCH": 59570, "BSTAR": 0.00023853332, "MEAN_MOTION_DOT": 1.599e-05, "MEAN_MOTION_DDOT": 0}, "tle": {"line1": "1 40310U 14072A   25343.28742326  .00001599  00000+0  23853-3 0  9990", "line2": "2 40310  98.1225 114.3622 0014590 148.5182 211.6904 14.76166342595703"}}, "geometry": {"type": "Point", "coordinates": [120.33730417040275, -34.53845308701203]}}, {"type": "Feature", "properties": {"norad_id": 40336, "name": "CBERS 4", "group": "resource", "lat": 18.050379253043356, "lon": -135.519584966983, "alt_km": 772.9119332924874, "timestamp": "2025-12-09T14:52:25.823077+00:00", "meta": {"OBJECT_NAME": "CBERS 4", "OBJECT_ID": "2014-079A", "EPOCH": "2025-12-09T07:25:55.404192", "MEAN_MOTION": 14.35515454, "ECCENTRICITY": 0.00015778, "INCLINATION": 98.3309, "RA_OF_ASC_NODE": 41.4439, "ARG_OF_PERICENTER": 116.0338, "MEAN_ANOMALY": 244.101, "EPHEMERIS_TYPE": 0, "CLASSIFICATION_TYPE": "U", "NORAD_CAT_ID": 40336, "ELEMENT_SET_NO": 999, "REV_AT_EPOCH": 57671, "BSTAR": 6.2977961e-05, "MEAN_MOTION_DOT": 1.39e-06, "MEAN_MOTION_DDOT": 0}, "tle": {"line1": "1 40336U 14079A   25343.30966903  .00000139  00000+0  62978-4 0  9998", "line2": "2 40336  98.3309  41.4439 0001577 116.0338 244.1010 14.35515454576712"}}, "geometry": {"type": "Point", "coordinates": [-135.519584966983, 18.050379253043356]}}, {"type": "Feature", "properties": {"norad_id": 40362, "name": "YAOGAN-26", "group": "resource", "lat": 32.55061056466223, "lon": -20.135431083509264, "alt_km": 442.31287305231126, "timestamp": "2025-12-09T14:52:25.823088+00:00", "meta": {"OBJECT_NAME": "YAOGAN-26", "OBJECT_ID": "2014-088A", "EPOCH": "2025-12-09T06:55:48.228096", "MEAN_MOTION": 15.39111959, "ECCENTRICITY": 0.00066657, "INCLINATION": 97.0643, "RA_OF_ASC_NODE": 344.0856, "ARG_OF_PERICENTER": 38.5684, "MEAN_ANOMALY": 321.6038, "EPHEMERIS_TYPE": 0, "CLASSIFICATION_TYPE": "U", "NORAD_CAT_ID": 40362, "ELEMENT_SET_NO": 999, "REV_AT_EPOCH": 60841, "BSTAR": 0.00068116331, "MEAN_MOTION_DOT": 0.00026396, "MEAN_MOTION_DDOT": 0}, "tle": {"line1": "1 40362U 14088A   25343.28875264  .00026396  00000+0  68116-3 0  9995", "line2": "2 40362  97.0643 344.0856 0006665  38.5684 321.6038 15.39111959608419"}}, "geometry": {"type": "Point", "coordinates": [-20.135431083509264, 32.55061056466223]}}, {"type": "Feature", "properties": {"norad_id": 40376, "name": "SMAP", "group": "resource", "lat": 51.5697843091437, "lon": -21.989521860504375, "alt_km": 676.9346616089297, "timestamp": "2025-12-09T14:52:25.823099+00:00", "meta": {"OBJECT_NAME": "SMAP", "OBJECT_ID": "2015-003A", "EPOCH": "2025-12-09T06:25:49.214208", "MEAN_MOTION": 14.6333866, "ECCENTRICITY": 0.00012082, "INCLINATION": 98.1291, "RA_OF_ASC_NODE": 348.0418, "ARG_OF_PERICENTER": 88.6223, "MEAN_ANOMALY": 271.5118, "EPHEMERIS_TYPE": 0, "CLASSIFICATION_TYPE": "U", "NORAD_CAT_ID": 40376, "ELEMENT_SET_NO": 999, "REV_AT_EPOCH": 57984, "BSTAR": 0.00021419927, "MEAN_MOTION_DOT": 1.059e-05, "MEAN_MOTION_DDOT": 0}, "tle": {"line1": "1 40376U 15003A   25343.26793072  .00001059  00000+0  21420-3 0  9998", "line2": "2 40376  98.1291 348.0418 0001208  88.6223 271.5118 14.63338660579848"}}, "geometry": {"type": "Point", "coordinates": [-21.989521860504375, 51.5697843091437]}}, {"type": "Feature", "properties": {"norad_id": 40536, "name": "KOMPSAT-3A", "group": "resource", "lat": -76.44347441495759, "lon": -8.178461270525208, "alt_km": 444.9815328921959, "timestamp": "2025-12-09T14:52:25.823109+00:00", "meta": {"OBJECT_NAME": "KOMPSAT-3A", "OBJECT_ID": "2015-014A", "EPOCH": "2025-12-09T05:52:52.007232", "MEAN_MOTION": 15.43748124, "ECCENTRICITY": 0.0004546, "INCLINATION": 97.6791, "RA_OF_ASC_NODE": 317.3987, "ARG_OF_PERICENTER": 134.2338, "MEAN_ANOMALY": 225.9283, "EPHEMERIS_TYPE": 0, "CLASSIFICATION_TYPE": "U", "NORAD_CAT_ID": 40536, "ELEMENT_SET_NO": 999, "REV_AT_EPOCH": 59241, "BSTAR": 0.00055123379, "MEAN_MOTION_DOT": 0.00024874, "MEAN_MOTION_DDOT": 0}, "tle": {"line1": "1 40536U 15014A   25343.24504638  .00024874  00000+0  55123-3 0  9991", "line2": "2 40536  97.6791 317.3987 0004546 134.2338 225.9283 15.43748124592411"}}, "geometry": {"type": "Point", "coordinates": [-8.178461270525208, -76.44347441495759]}}]}